HIMAWARI-8              
1 40267U 14060A   24063.58728229 -.00000268  00000+0  00000+0 0  9993
2 40267   0.0222 177.3004 0000850 184.0380 152.5808  1.00270594 34381
